CTC2_L_00669001-01
1 81956U 22619MO  26037.47799769  .00000000  00000+0  00000-0 0  9994
2 81956  55.0000   0.0000 0000000   0.0000   0.0000  1.97017133    14
CTC2_L_00669001-02
1 81957U 22370UK  26037.47799769  .00000000  00000+0  00000-0 0  9999
2 81957  55.0000   0.0000 0000000   0.0000  36.0000  1.97017133    14
CTC2_L_00669001-03
1 81958U 25650NA  26037.47799769  .00000000  00000+0  00000-0 0  9994
2 81958  55.0000   0.0000 0000000   0.0000  72.0000  1.97017133    15
CTC2_L_00669001-04
1 81959U 25354GY  26037.47799769  .00000000  00000+0  00000-0 0  9996
2 81959  55.0000   0.0000 0000000   0.0000 108.0000  1.97017133    16
CTC2_L_00669001-05
1 81960U 23346QS  26037.47799769  .00000000  00000+0  00000-0 0  9997
2 81960  55.0000   0.0000 0000000   0.0000 144.0000  1.97017133    18
CTC2_L_00669001-06
1 81961U 24798WH  26037.47799769  .00000000  00000+0  00000-0 0  9990
2 81961  55.0000   0.0000 0000000   0.0000 180.0000  1.97017133    19
CTC2_L_00669001-07
1 81962U 23775EV  26037.47799769  .00000000  00000+0  00000-0 0  9995
2 81962  55.0000   0.0000 0000000   0.0000 216.0000  1.97017133    10
CTC2_L_00669001-08
1 81963U 24479UC  26037.47799769  .00000000  00000+0  00000-0 0  9998
2 81963  55.0000   0.0000 0000000   0.0000 252.0000  1.97017133    11
CTC2_L_00669001-09
1 81964U 23613PL  26037.47799769  .00000000  00000+0  00000-0 0  9998
2 81964  55.0000   0.0000 0000000   0.0000 288.0000  1.97017133    11
CTC2_L_00669001-10
1 81965U 25829QM  26037.47799769  .00000000  00000+0  00000-0 0  9990
2 81965  55.0000   0.0000 0000000   0.0000 324.0000  1.97017133    13
CTC2_L_00669002-01
1 81966U 24835XY  26037.47799769  .00000000  00000+0  00000-0 0  9997
2 81966  55.0000  30.0000 0000000   0.0000  12.0000  1.97017133    11
CTC2_L_00669002-02
1 81967U 23431ZF  26037.47799769  .00000000  00000+0  00000-0 0  9999
2 81967  55.0000  30.0000 0000000   0.0000  48.0000  1.97017133    11
CTC2_L_00669002-03
1 81968U 22970AN  26037.47799769  .00000000  00000+0  00000-0 0  9997
2 81968  55.0000  30.0000 0000000   0.0000  84.0000  1.97017133    12
CTC2_L_00669002-04
1 81969U 22175DQ  26037.47799769  .00000000  00000+0  00000-0 0  9995
2 81969  55.0000  30.0000 0000000   0.0000 120.0000  1.97017133    14
CTC2_L_00669002-05
1 81970U 26171WC  26037.47799769  .00000000  00000+0  00000-0 0  9997
2 81970  55.0000  30.0000 0000000   0.0000 156.0000  1.97017133    15
CTC2_L_00669002-06
1 81971U 26313TO  26037.47799769  .00000000  00000+0  00000-0 0  9996
2 81971  55.0000  30.0000 0000000   0.0000 192.0000  1.97017133    16
CTC2_L_00669002-07
1 81972U 25934FU  26037.47799769  .00000000  00000+0  00000-0 0  9995
2 81972  55.0000  30.0000 0000000   0.0000 228.0000  1.97017133    17
CTC2_L_00669002-08
1 81973U 23167JA  26037.47799769  .00000000  00000+0  00000-0 0  9992
2 81973  55.0000  30.0000 0000000   0.0000 264.0000  1.97017133    18
CTC2_L_00669002-09
1 81974U 24017XS  26037.47799769  .00000000  00000+0  00000-0 0  9998
2 81974  55.0000  30.0000 0000000   0.0000 300.0000  1.97017133    10
CTC2_L_00669002-10
1 81975U 25624EV  26037.47799769  .00000000  00000+0  00000-0 0  9994
2 81975  55.0000  30.0000 0000000   0.0000 336.0000  1.97017133    10
CTC2_L_00669003-01
1 81976U 25010FF  26037.47799769  .00000000  00000+0  00000-0 0  9994
2 81976  55.0000  60.0000 0000000   0.0000  24.0000  1.97017133    18
CTC2_L_00669003-02
1 81977U 24289MN  26037.47799769  .00000000  00000+0  00000-0 0  9992
2 81977  55.0000  60.0000 0000000   0.0000  60.0000  1.97017133    19
CTC2_L_00669003-03
1 81978U 24627JB  26037.47799769  .00000000  00000+0  00000-0 0  9999
2 81978  55.0000  60.0000 0000000   0.0000  96.0000  1.97017133    19
CTC2_L_00669003-04
1 81979U 23764DC  26037.47799769  .00000000  00000+0  00000-0 0  9991
2 81979  55.0000  60.0000 0000000   0.0000 132.0000  1.97017133    11
CTC2_L_00669003-05
1 81980U 23915VK  26037.47799769  .00000000  00000+0  00000-0 0  9991
2 81980  55.0000  60.0000 0000000   0.0000 168.0000  1.97017133    12
CTC2_L_00669003-06
1 81981U 25075QN  26037.47799769  .00000000  00000+0  00000-0 0  9991
2 81981  55.0000  60.0000 0000000   0.0000 204.0000  1.97017133    14
CTC2_L_00669003-07
1 81982U 22055CC  26037.47799769  .00000000  00000+0  00000-0 0  9997
2 81982  55.0000  60.0000 0000000   0.0000 240.0000  1.97017133    15
CTC2_L_00669003-08
1 81983U 26208CN  26037.47799769  .00000000  00000+0  00000-0 0  9992
2 81983  55.0000  60.0000 0000000   0.0000 276.0000  1.97017133    15
CTC2_L_00669003-09
1 81984U 25799HC  26037.47799769  .00000000  00000+0  00000-0 0  9997
2 81984  55.0000  60.0000 0000000   0.0000 312.0000  1.97017133    17
CTC2_L_00669003-10
1 81985U 22038EH  26037.47799769  .00000000  00000+0  00000-0 0  9991
2 81985  55.0000  60.0000 0000000   0.0000 348.0000  1.97017133    17
CTC2_L_00669004-01
1 81986U 23923DQ  26037.47799769  .00000000  00000+0  00000-0 0  9996
2 81986  55.0000  90.0000 0000000   0.0000  36.0000  1.97017133    15
CTC2_L_00669004-02
1 81987U 26500AJ  26037.47799769  .00000000  00000+0  00000-0 0  9991
2 81987  55.0000  90.0000 0000000   0.0000  72.0000  1.97017133    16
CTC2_L_00669004-03
1 81988U 26260CP  26037.47799769  .00000000  00000+0  00000-0 0  9995
2 81988  55.0000  90.0000 0000000   0.0000 108.0000  1.97017133    17
CTC2_L_00669004-04
1 81989U 24350YL  26037.47799769  .00000000  00000+0  00000-0 0  9994
2 81989  55.0000  90.0000 0000000   0.0000 144.0000  1.97017133    18
CTC2_L_00669004-05
1 81990U 22720UL  26037.47799769  .00000000  00000+0  00000-0 0  9995
2 81990  55.0000  90.0000 0000000   0.0000 180.0000  1.97017133    10
CTC2_L_00669004-06
1 81991U 25236XR  26037.47799769  .00000000  00000+0  00000-0 0  9991
2 81991  55.0000  90.0000 0000000   0.0000 216.0000  1.97017133    11
CTC2_L_00669004-07
1 81992U 24593MV  26037.47799769  .00000000  00000+0  00000-0 0  9997
2 81992  55.0000  90.0000 0000000   0.0000 252.0000  1.97017133    12
CTC2_L_00669004-08
1 81993U 22324Y   26037.47799769  .00000000  00000+0  00000-0 0  9998
2 81993  55.0000  90.0000 0000000   0.0000 288.0000  1.97017133    12
CTC2_L_00669004-09
1 81994U 22404W   26037.47799769  .00000000  00000+0  00000-0 0  9998
2 81994  55.0000  90.0000 0000000   0.0000 324.0000  1.97017133    14
CTC2_L_00669004-10
1 81995U 26660VY  26037.47799769  .00000000  00000+0  00000-0 0  9997
2 81995  55.0000  90.0000 0000000   0.0000   0.0000  1.97017133    16
CTC2_L_00669005-01
1 81996U 25526JL  26037.47799769  .00000000  00000+0  00000-0 0  9998
2 81996  55.0000 120.0000 0000000   0.0000  48.0000  1.97017133    13
CTC2_L_00669005-02
1 81997U 25188Z   26037.47799769  .00000000  00000+0  00000-0 0  9993
2 81997  55.0000 120.0000 0000000   0.0000  84.0000  1.97017133    14
CTC2_L_00669005-03
1 81998U 22367CJ  26037.47799769  .00000000  00000+0  00000-0 0  9990
2 81998  55.0000 120.0000 0000000   0.0000 120.0000  1.97017133    16
CTC2_L_00669005-04
1 81999U 22576I   26037.47799769  .00000000  00000+0  00000-0 0  9993
2 81999  55.0000 120.0000 0000000   0.0000 156.0000  1.97017133    16
CTC2_L_00669005-05
1 82000U 22749MY  26037.47799769  .00000000  00000+0  00000-0 0  9999
2 82000  55.0000 120.0000 0000000   0.0000 192.0000  1.97017133    10
CTC2_L_00669005-06
1 82001U 24479B   26037.47799769  .00000000  00000+0  00000-0 0  9992
2 82001  55.0000 120.0000 0000000   0.0000 228.0000  1.97017133    11
CTC2_L_00669005-07
1 82002U 25938P   26037.47799769  .00000000  00000+0  00000-0 0  9994
2 82002  55.0000 120.0000 0000000   0.0000 264.0000  1.97017133    12
CTC2_L_00669005-08
1 82003U 25723DM  26037.47799769  .00000000  00000+0  00000-0 0  9997
2 82003  55.0000 120.0000 0000000   0.0000 300.0000  1.97017133    14
CTC2_L_00669005-09
1 82004U 25646TK  26037.47799769  .00000000  00000+0  00000-0 0  9992
2 82004  55.0000 120.0000 0000000   0.0000 336.0000  1.97017133    14
CTC2_L_00669005-10
1 82005U 26765CU  26037.47799769  .00000000  00000+0  00000-0 0  9996
2 82005  55.0000 120.0000 0000000   0.0000  12.0000  1.97017133    16
CTC2_L_00669006-01
1 82006U 22742SL  26037.47799769  .00000000  00000+0  00000-0 0  9998
2 82006  55.0000 150.0000 0000000   0.0000  60.0000  1.97017133    13
CTC2_L_00669006-02
1 82007U 24204EE  26037.47799769  .00000000  00000+0  00000-0 0  9994
2 82007  55.0000 150.0000 0000000   0.0000  96.0000  1.97017133    13
CTC2_L_00669006-03
1 82008U 26221HZ  26037.47799769  .00000000  00000+0  00000-0 0  9996
2 82008  55.0000 150.0000 0000000   0.0000 132.0000  1.97017133    15
CTC2_L_00669006-04
1 82009U 23183XT  26037.47799769  .00000000  00000+0  00000-0 0  9991
2 82009  55.0000 150.0000 0000000   0.0000 168.0000  1.97017133    15
CTC2_L_00669006-05
1 82010U 23712XZ  26037.47799769  .00000000  00000+0  00000-0 0  9991
2 82010  55.0000 150.0000 0000000   0.0000 204.0000  1.97017133    18
CTC2_L_00669006-06
1 82011U 25764VW  26037.47799769  .00000000  00000+0  00000-0 0  9991
2 82011  55.0000 150.0000 0000000   0.0000 240.0000  1.97017133    19
CTC2_L_00669006-07
1 82012U 24338ZO  26037.47799769  .00000000  00000+0  00000-0 0  9998
2 82012  55.0000 150.0000 0000000   0.0000 276.0000  1.97017133    19
CTC2_L_00669006-08
1 82013U 22591JR  26037.47799769  .00000000  00000+0  00000-0 0  9998
2 82013  55.0000 150.0000 0000000   0.0000 312.0000  1.97017133    11
CTC2_L_00669006-09
1 82014U 25206PA  26037.47799769  .00000000  00000+0  00000-0 0  9995
2 82014  55.0000 150.0000 0000000   0.0000 348.0000  1.97017133    11
CTC2_L_00669006-10
1 82015U 25384FX  26037.47799769  .00000000  00000+0  00000-0 0  9993
2 82015  55.0000 150.0000 0000000   0.0000  24.0000  1.97017133    13
CTC2_L_00669007-01
1 82016U 23056PD  26037.47799769  .00000000  00000+0  00000-0 0  9998
2 82016  55.0000 180.0000 0000000   0.0000  72.0000  1.97017133    10
CTC2_L_00669007-02
1 82017U 26237NS  26037.47799769  .00000000  00000+0  00000-0 0  9993
2 82017  55.0000 180.0000 0000000   0.0000 108.0000  1.97017133    11
